[{"OBJECT_NAME":"EOSSAT-1","OBJECT_ID":"2023-001AW","EPOCH":"2026-03-09T17:40:07.010400","MEAN_MOTION":15.32339828,"ECCENTRICITY":0.00112629,"INCLINATION":97.3357,"RA_OF_ASC_NODE":130.2294,"ARG_OF_PERICENTER":110.3168,"MEAN_ANOMALY":249.9285,"EPHEMERIS_TYPE":0,"CLASSIFICATION_TYPE":"U","NORAD_CAT_ID":55053,"ELEMENT_SET_NO":999,"REV_AT_EPOCH":17668,"BSTAR":0.00024844399,"MEAN_MOTION_DOT":7.695e-5,"MEAN_MOTION_DDOT":0},{"OBJECT_NAME":"STARLINK-31361","OBJECT_ID":"2024-031K","EPOCH":"2026-03-09T21:14:45.682080","MEAN_MOTION":15.30184939,"ECCENTRICITY":0.00011288,"INCLINATION":53.1602,"RA_OF_ASC_NODE":295.7495,"ARG_OF_PERICENTER":64.2817,"MEAN_ANOMALY":295.83,"EPHEMERIS_TYPE":0,"CLASSIFICATION_TYPE":"U","NORAD_CAT_ID":58974,"ELEMENT_SET_NO":999,"REV_AT_EPOCH":11656,"BSTAR":2.110207e-5,"MEAN_MOTION_DOT":2.66e-6,"MEAN_MOTION_DDOT":0}]
